ONEWEB-0645             
1 55809U 23029P   25290.93073799 -.00000020  00000+0 -83191-4 0  9997
2 55809  87.9254 353.1771 0001791 116.5341 243.5976 13.19726343126958
ONEWEB-0646             
1 55810U 23029Q   25290.89833952  .00000118  00000+0  26133-3 0  9997
2 55810  87.9258 353.1837 0002088 107.0986 253.0375 13.19726816126939
ONEWEB-0648             
1 55811U 23029R   25290.82946376  .00000194  00000+0  48824-3 0  9991
2 55811  87.9029 337.9836 0002049 127.1342 232.9975 13.14505783127555
ONEWEB-0649             
1 55812U 23029S   25290.92362293 -.00000040  00000+0 -13289-3 0  9992
2 55812  87.9260 353.1724 0001943 113.6953 246.4384 13.19723637126973
ONEWEB-0650             
1 55813U 23029T   25290.91889254 -.00000051  00000+0 -15931-3 0  9991
2 55813  87.9258 353.1823 0002020 104.4212 255.7145 13.19724115126941
ONEWEB-0652             
1 55814U 23029U   25290.88656911  .00000279  00000+0  71934-3 0  9995
2 55814  87.9038 337.9916 0001842  92.2679 267.8662 13.14502345127531
ONEWEB-0653             
1 55815U 23029V   25290.87069796  .00000015  00000+0  64568-5 0  9999
2 55815  87.9029 337.9846 0001634  95.5039 264.6277 13.14500209127566
ONEWEB-0654             
1 55816U 23029W   25290.94206745 -.00000164  00000+0 -47640-3 0  9992
2 55816  87.9035 337.9702 0001974  92.2740 267.8616 13.14503645127597
